SIRION PATHFINDER-2     
1 43759U 18099B   26166.06756145  .00004427  00000+0  24362-3 0  9996
2 43759  97.4254 215.1753 0007322 314.0244  46.0384 15.14533187412300
CORVUS BC4              
1 43767U 18099K   26166.07125720  .00004462  00000+0  25989-3 0  9990
2 43767  97.4064 209.1132 0008503  19.7922 340.3637 15.12480609412080
M2 PATHFINDER           
1 45727U 20037E   26166.05182993  .00001888  00000+0  13862-3 0  9992
2 45727  97.8149 357.2598 0012362 152.5507 207.6374 15.04669716325175
NETSAT-4                
1 46504U 20068U   26165.98588678  .00016429  00000+0  36460-3 0  9997
2 46504  97.8597 174.0498 0004154 348.1192  11.9955 15.43802576315438
NETSAT-3                
1 46505U 20068V   26165.99046971  .00016798  00000+0  38784-3 0  9994
2 46505  97.8646 172.2736 0004501   9.9261 350.2074 15.42612738315343
NETSAT-1                
1 46506U 20068W   26166.24450190  .00009870  00000+0  29684-3 0  9998
2 46506  97.8738 166.9020 0005264  38.2819 321.8796 15.34603086315008
NETSAT-2                
1 46507U 20068X   26165.96423858  .00020875  00000+0  43051-3 0  9990
2 46507  97.8608 173.9130 0003741  33.1774 326.9708 15.45916537315398
GREENCUBE (IO-117)      
1 53109U 22080E   26164.29338770 -.00000003  00000+0  00000+0 0  9990
2 53109  70.1444 299.5995 0008910 290.4576  69.5127  6.42583230 91811
SITRO-AIS 5 (KATYS)     
1 57176U 23091L   26166.23806987  .00010080  00000+0  35512-3 0  9992
2 57176  97.5065 230.1186 0012802 109.5363 250.7261 15.29419082164040
SITRO-AIS 6 (CHIRKIN)   
1 57192U 23091AC  26166.14694799  .00009603  00000+0  37645-3 0  9994
2 57192  97.5072 229.1566 0013097 112.7159 247.5465 15.25902754163972
SITRO-AIS 8 (ANOKHIN)   
1 57193U 23091AD  26166.25849833  .00012392  00000+0  40146-3 0  9997
2 57193  97.5061 231.7201 0011814 105.8249 254.4296 15.32091035164153
SITRO-AIS 7 (FARTUSHNIY)
1 57194U 23091AE  26166.21527100  .00008245  00000+0  32673-3 0  9992
2 57194  97.5070 229.0512 0012939 113.4719 246.7881 15.25590814163979
SITRO-AIS 10 (BURDAEV)  
1 57199U 23091AK  26166.29814759  .00016840  00000+0  44390-3 0  9993
2 57199  97.5087 236.7948 0007640  85.8780 274.3338 15.38550818164477
SITRO-AIS 9 (SHCHUKIN)  
1 57201U 23091AM  26166.25888717  .00015718  00000+0  42117-3 0  9996
2 57201  97.5085 236.4862 0007875  86.1454 274.0691 15.38059109164457
SITRO-AIS 12 (SMIRENNIY)
1 57204U 23091AQ  26166.24987544  .00016418  00000+0  43570-3 0  9998
2 57204  97.5098 236.9430 0007432  81.1214 279.0872 15.38351122164476
SITRO-AIS 11 (SHEFFER)  
1 57208U 23091AU  26166.26382404  .00016698  00000+0  43703-3 0  9996
2 57208  97.5097 237.2025 0007313  81.1494 279.0579 15.38776195164498
SITRO-AIS 25            
1 59066U 24039R   26166.29920450  .00002130  00000+0  16796-3 0  9993
2 59066  95.3911 233.7950 0143714 335.4194  24.0225 14.93505106124448
SITRO-AIS 26            
1 59067U 24039S   26166.16630312  .00002197  00000+0  17394-3 0  9993
2 59067  95.3912 233.6018 0144089 336.4694  22.9981 14.93301212124411
SITRO-AIS 27            
1 59068U 24039T   26166.27109823  .00002750  00000+0  21515-3 0  9999
2 59068  95.3916 233.9445 0142993 334.7393  24.6885 14.93721953124456
SITRO-AIS 28            
1 59071U 24039U   26166.31557058  .00002620  00000+0  20500-3 0  9994
2 59071  95.3914 234.0223 0142925 334.3799  25.0390 14.93753916124466
GRBBETA                 
1 60237U 24128C   26166.29535662  .00002813  00000+0  19995-3 0  9993
2 60237  61.9890 222.9040 0040882 134.2926 226.1532 15.06629131105989
OOV-CUBE (TUBSAT-30)    
1 60240U 24128F   26166.25891672  .00001750  00000+0  14324-3 0  9999
2 60240  61.9945 232.2972 0044856 133.2746 227.2101 15.02767420105823
ROBUSTA-3A (MEDITERRAN*)
1 60243U 24128J   26166.28272386  .00004886  00000+0  29310-3 0  9994
2 60243  61.9852 214.9797 0041566 127.7298 232.7576 15.11659592106132
LASARSAT                
1 62391U 24247Q   26164.61689910  .00032689  00000+0  65515-3 0  9991
2 62391  44.9751 282.2745 0008375 311.5212  48.4959 15.46168743 82768
CROCUBE                 
1 62394U 24247T   26165.58698051  .00034757  00000+0  65094-3 0  9997
2 62394  44.9722 274.1999 0008187 320.7516  39.2780 15.48102542 82947
FORESAIL-1 PRIME        
1 66778U 25276DS  26166.15169850  .00004477  00000+0  21912-3 0  9991
2 66778  97.4203 239.4592 0003938 109.0976 251.0685 15.18685264 30095
KNACKSAT-2              
1 67683U 98067XZ  26165.65979306  .00044887  00000+0  55154-3 0  9998
2 67683  51.6308 307.1872 0009407 204.1419 155.9135 15.59771864 19882
