OBJECT_NAME,OBJECT_ID,EPOCH,MEAN_MOTION,ECCENTRICITY,INCLINATION,RA_OF_ASC_NODE,ARG_OF_PERICENTER,MEAN_ANOMALY,EPHEMERIS_TYPE,CLASSIFICATION_TYPE,NORAD_CAT_ID,ELEMENT_SET_NO,REV_AT_EPOCH,BSTAR,MEAN_MOTION_DOT,MEAN_MOTION_DDOT
SIRION PATHFINDER-2,2018-099B,2026-06-15T01:37:17.309280,15.14533187,.00073226,97.4254,215.1753,314.0244,46.0384,0,U,43759,999,41230,.24361953E-3,.4427E-4,0
CORVUS BC4,2018-099K,2026-06-15T01:42:36.622080,15.12480609,.0008503,97.4064,209.1132,19.7922,340.3637,0,U,43767,999,41208,.25988945E-3,.4462E-4,0
M2 PATHFINDER,2020-037E,2026-06-15T01:14:38.105952,15.04669716,.00123629,97.8149,357.2598,152.5507,207.6374,0,U,45727,999,32517,.1386201E-3,.1888E-4,0
NETSAT-4,2020-068U,2026-06-14T23:39:40.617792,15.43802576,.00041545,97.8597,174.0498,348.1192,11.9955,0,U,46504,999,31543,.36460098E-3,.16429E-3,0
NETSAT-3,2020-068V,2026-06-14T23:46:16.582944,15.42612738,.00045011,97.8646,172.2736,9.9261,350.2074,0,U,46505,999,31534,.3878366E-3,.16798E-3,0
NETSAT-1,2020-068W,2026-06-15T05:52:04.964160,15.34603086,.00052649,97.8738,166.9020,38.2819,321.8796,0,U,46506,999,31500,.29683527E-3,.987E-4,0
NETSAT-2,2020-068X,2026-06-14T23:08:30.213312,15.45916537,.00037416,97.8608,173.9130,33.1774,326.9708,0,U,46507,999,31539,.43051437E-3,.20875E-3,0
GREENCUBE (IO-117),2022-080E,2026-06-13T07:02:28.697280,6.42583230,.00089108,70.1444,299.5995,290.4576,69.5127,0,U,53109,999,9181,0,-.3E-7,0
SITRO-AIS 5 (KATYS),2023-091L,2026-06-15T05:42:49.236768,15.29419082,.00128028,97.5065,230.1186,109.5363,250.7261,0,U,57176,999,16404,.35512409E-3,.1008E-3,0
SITRO-AIS 6 (CHIRKIN),2023-091AC,2026-06-15T03:31:36.306336,15.25902754,.00130971,97.5072,229.1566,112.7159,247.5465,0,U,57192,999,16397,.37644588E-3,.9603E-4,0
SITRO-AIS 8 (ANOKHIN),2023-091AD,2026-06-15T06:12:14.255712,15.32091035,.00118141,97.5061,231.7201,105.8249,254.4296,0,U,57193,999,16415,.40146077E-3,.12392E-3,0
SITRO-AIS 7 (FARTUSHNIY),2023-091AE,2026-06-15T05:09:59.414400,15.25590814,.00129394,97.5070,229.0512,113.4719,246.7881,0,U,57194,999,16397,.32673053E-3,.8245E-4,0
SITRO-AIS 10 (BURDAEV),2023-091AK,2026-06-15T07:09:19.951776,15.38550818,.00076405,97.5087,236.7948,85.8780,274.3338,0,U,57199,999,16447,.44389621E-3,.1684E-3,0
SITRO-AIS 9 (SHCHUKIN),2023-091AM,2026-06-15T06:12:47.851488,15.38059109,.00078756,97.5085,236.4862,86.1454,274.0691,0,U,57201,999,16445,.42116782E-3,.15718E-3,0
SITRO-AIS 12 (SMIRENNIY),2023-091AQ,2026-06-15T05:59:49.238016,15.38351122,.00074324,97.5098,236.9430,81.1214,279.0872,0,U,57204,999,16447,.43569983E-3,.16418E-3,0
SITRO-AIS 11 (SHEFFER),2023-091AU,2026-06-15T06:19:54.397056,15.38776195,.00073132,97.5097,237.2025,81.1494,279.0579,0,U,57208,999,16449,.43703162E-3,.16698E-3,0
SITRO-AIS 25,2024-039R,2026-06-15T07:10:51.268800,14.93505106,.01437145,95.3911,233.7950,335.4194,24.0225,0,U,59066,999,12444,.16796413E-3,.213E-4,0
SITRO-AIS 26,2024-039S,2026-06-15T03:59:28.589568,14.93301212,.01440894,95.3912,233.6018,336.4694,22.9981,0,U,59067,999,12441,.1739433E-3,.2197E-4,0
SITRO-AIS 27,2024-039T,2026-06-15T06:30:22.887072,14.93721953,.01429935,95.3916,233.9445,334.7393,24.6885,0,U,59068,999,12445,.2151487E-3,.275E-4,0
SITRO-AIS 28,2024-039U,2026-06-15T07:34:25.298112,14.93753916,.01429257,95.3914,234.0223,334.3799,25.0390,0,U,59071,999,12446,.20500152E-3,.262E-4,0
GRBBETA,2024-128C,2026-06-15T07:05:18.811968,15.06629131,.00408827,61.9890,222.9040,134.2926,226.1532,0,U,60237,999,10598,.19995247E-3,.2813E-4,0
OOV-CUBE (TUBSAT-30),2024-128F,2026-06-15T06:12:50.404608,15.02767420,.00448565,61.9945,232.2972,133.2746,227.2101,0,U,60240,999,10582,.14323973E-3,.175E-4,0
ROBUSTA-3A (MEDITERRANEE),2024-128J,2026-06-15T06:47:07.341504,15.11659592,.00415666,61.9852,214.9797,127.7298,232.7576,0,U,60243,999,10613,.2931017E-3,.4886E-4,0
LASARSAT,2024-247Q,2026-06-13T14:48:20.082240,15.46168743,.0008375,44.9751,282.2745,311.5212,48.4959,0,U,62391,999,8276,.65515E-3,.32689E-3,0
CROCUBE,2024-247T,2026-06-14T14:05:15.116064,15.48102542,.0008187,44.9722,274.1999,320.7516,39.2780,0,U,62394,999,8294,.65094E-3,.34757E-3,0
FORESAIL-1 PRIME,2025-276DS,2026-06-15T03:38:26.750400,15.18685264,.00039386,97.4203,239.4592,109.0976,251.0685,0,U,66778,999,3009,.21912264E-3,.4477E-4,0
KNACKSAT-2,1998-067XZ,2026-06-14T15:50:06.120384,15.59771864,.00094076,51.6308,307.1872,204.1419,155.9135,0,U,67683,999,1988,.5515425E-3,.44887E-3,0
